CCSDS_OMM_VERS = 2.0
CREATION_DATE  = 
ORIGINATOR     = 

OBJECT_NAME    = STARLINK-36466
OBJECT_ID      = 2026-003AA
CENTER_NAME    = EARTH
REF_FRAME      = TEME
TIME_SYSTEM    = UTC
MEAN_ELEMENT_THEORY = SGP/SGP4

EPOCH          = 2026-01-26T13:55:03.919872
MEAN_MOTION    = 15.75108585
ECCENTRICITY   = .00012586
INCLINATION    = 42.9980
RA_OF_ASC_NODE = 108.3739
ARG_OF_PERICENTER = 287.0001
MEAN_ANOMALY   = 73.0731

EPHEMERIS_TYPE = 0
CLASSIFICATION_TYPE = U
NORAD_CAT_ID   = 67358
ELEMENT_SET_NO = 999
REV_AT_EPOCH   = 234
BSTAR          = .17486794E-2
MEAN_MOTION_DOT = .278022E-2
MEAN_MOTION_DDOT = 0

CCSDS_OMM_VERS = 2.0
CREATION_DATE  = 
ORIGINATOR     = 

OBJECT_NAME    = STARLINK-36499
OBJECT_ID      = 2026-003AB
CENTER_NAME    = EARTH
REF_FRAME      = TEME
TIME_SYSTEM    = UTC
MEAN_ELEMENT_THEORY = SGP/SGP4

EPOCH          = 2026-01-26T13:54:34.972416
MEAN_MOTION    = 15.75101504
ECCENTRICITY   = .00010815
INCLINATION    = 42.9981
RA_OF_ASC_NODE = 108.3710
ARG_OF_PERICENTER = 282.5515
MEAN_ANOMALY   = 77.5233

EPHEMERIS_TYPE = 0
CLASSIFICATION_TYPE = U
NORAD_CAT_ID   = 67359
ELEMENT_SET_NO = 999
REV_AT_EPOCH   = 234
BSTAR          = .17615876E-2
MEAN_MOTION_DOT = .280061E-2
MEAN_MOTION_DDOT = 0

CCSDS_OMM_VERS = 2.0
CREATION_DATE  = 
ORIGINATOR     = 

OBJECT_NAME    = STARLINK-36469
OBJECT_ID      = 2026-003AC
CENTER_NAME    = EARTH
REF_FRAME      = TEME
TIME_SYSTEM    = UTC
MEAN_ELEMENT_THEORY = SGP/SGP4

EPOCH          = 2026-01-26T13:54:05.565312
MEAN_MOTION    = 15.75090693
ECCENTRICITY   = .00005752
INCLINATION    = 42.9976
RA_OF_ASC_NODE = 108.3682
ARG_OF_PERICENTER = 303.6487
MEAN_ANOMALY   = 56.4327

EPHEMERIS_TYPE = 0
CLASSIFICATION_TYPE = U
NORAD_CAT_ID   = 67360
ELEMENT_SET_NO = 999
REV_AT_EPOCH   = 234
BSTAR          = .27499458E-2
MEAN_MOTION_DOT = .446116E-2
MEAN_MOTION_DDOT = 0

CCSDS_OMM_VERS = 2.0
CREATION_DATE  = 
ORIGINATOR     = 

OBJECT_NAME    = STARLINK-35306
OBJECT_ID      = 2026-003AD
CENTER_NAME    = EARTH
REF_FRAME      = TEME
TIME_SYSTEM    = UTC
MEAN_ELEMENT_THEORY = SGP/SGP4

EPOCH          = 2026-01-26T13:53:37.126752
MEAN_MOTION    = 15.75143690
ECCENTRICITY   = .00011284
INCLINATION    = 42.9978
RA_OF_ASC_NODE = 108.3648
ARG_OF_PERICENTER = 355.0094
MEAN_ANOMALY   = 5.0764

EPHEMERIS_TYPE = 0
CLASSIFICATION_TYPE = U
NORAD_CAT_ID   = 67361
ELEMENT_SET_NO = 999
REV_AT_EPOCH   = 234
BSTAR          = .26807605E-2
MEAN_MOTION_DOT = .43529E-2
MEAN_MOTION_DDOT = 0

CCSDS_OMM_VERS = 2.0
CREATION_DATE  = 
ORIGINATOR     = 

OBJECT_NAME    = STARLINK-36428
OBJECT_ID      = 2026-003AE
CENTER_NAME    = EARTH
REF_FRAME      = TEME
TIME_SYSTEM    = UTC
MEAN_ELEMENT_THEORY = SGP/SGP4

EPOCH          = 2026-01-26T13:53:07.901088
MEAN_MOTION    = 15.75145844
ECCENTRICITY   = .00014241
INCLINATION    = 42.9979
RA_OF_ASC_NODE = 108.3622
ARG_OF_PERICENTER = 357.6996
MEAN_ANOMALY   = 2.3867

EPHEMERIS_TYPE = 0
CLASSIFICATION_TYPE = U
NORAD_CAT_ID   = 67362
ELEMENT_SET_NO = 999
REV_AT_EPOCH   = 234
BSTAR          = .26557721E-2
MEAN_MOTION_DOT = .431038E-2
MEAN_MOTION_DDOT = 0

CCSDS_OMM_VERS = 2.0
CREATION_DATE  = 
ORIGINATOR     = 

OBJECT_NAME    = TWILIGHT A
OBJECT_ID      = 2026-004A
CENTER_NAME    = EARTH
REF_FRAME      = TEME
TIME_SYSTEM    = UTC
MEAN_ELEMENT_THEORY = SGP/SGP4

EPOCH          = 2026-01-26T14:53:32.148672
MEAN_MOTION    = 14.86928833
ECCENTRICITY   = .00074348
INCLINATION    = 97.7997
RA_OF_ASC_NODE = 27.5169
ARG_OF_PERICENTER = 241.5071
MEAN_ANOMALY   = 118.5396

EPHEMERIS_TYPE = 0
CLASSIFICATION_TYPE = U
NORAD_CAT_ID   = 67363
ELEMENT_SET_NO = 999
REV_AT_EPOCH   = 223
BSTAR          = .59572374E-3
MEAN_MOTION_DOT = .5276E-4
MEAN_MOTION_DDOT = 0

CCSDS_OMM_VERS = 2.0
CREATION_DATE  = 
ORIGINATOR     = 

OBJECT_NAME    = TWILIGHT B
OBJECT_ID      = 2026-004B
CENTER_NAME    = EARTH
REF_FRAME      = TEME
TIME_SYSTEM    = UTC
MEAN_ELEMENT_THEORY = SGP/SGP4

EPOCH          = 2026-01-26T14:52:20.956800
MEAN_MOTION    = 14.87048042
ECCENTRICITY   = .00072974
INCLINATION    = 97.8000
RA_OF_ASC_NODE = 27.5178
ARG_OF_PERICENTER = 236.4862
MEAN_ANOMALY   = 123.5657

EPHEMERIS_TYPE = 0
CLASSIFICATION_TYPE = U
NORAD_CAT_ID   = 67364
ELEMENT_SET_NO = 999
REV_AT_EPOCH   = 224
BSTAR          = .65726051E-3
MEAN_MOTION_DOT = .5844E-4
MEAN_MOTION_DDOT = 0

CCSDS_OMM_VERS = 2.0
CREATION_DATE  = 
ORIGINATOR     = 

OBJECT_NAME    = TWILIGHT C
OBJECT_ID      = 2026-004C
CENTER_NAME    = EARTH
REF_FRAME      = TEME
TIME_SYSTEM    = UTC
MEAN_ELEMENT_THEORY = SGP/SGP4

EPOCH          = 2026-01-26T14:52:01.150464
MEAN_MOTION    = 14.87065478
ECCENTRICITY   = .00069176
INCLINATION    = 97.7976
RA_OF_ASC_NODE = 27.5172
ARG_OF_PERICENTER = 242.5844
MEAN_ANOMALY   = 117.4669

EPHEMERIS_TYPE = 0
CLASSIFICATION_TYPE = U
NORAD_CAT_ID   = 67365
ELEMENT_SET_NO = 999
REV_AT_EPOCH   = 224
BSTAR          = .72053154E-3
MEAN_MOTION_DOT = .6415E-4
MEAN_MOTION_DDOT = 0

CCSDS_OMM_VERS = 2.0
CREATION_DATE  = 
ORIGINATOR     = 

OBJECT_NAME    = TWILIGHT D
OBJECT_ID      = 2026-004D
CENTER_NAME    = EARTH
REF_FRAME      = TEME
TIME_SYSTEM    = UTC
MEAN_ELEMENT_THEORY = SGP/SGP4

EPOCH          = 2026-01-26T14:51:32.310144
MEAN_MOTION    = 14.87078591
ECCENTRICITY   = .00074119
INCLINATION    = 97.8032
RA_OF_ASC_NODE = 27.5200
ARG_OF_PERICENTER = 229.1894
MEAN_ANOMALY   = 130.8680

EPHEMERIS_TYPE = 0
CLASSIFICATION_TYPE = U
NORAD_CAT_ID   = 67366
ELEMENT_SET_NO = 999
REV_AT_EPOCH   = 224
BSTAR          = .62907221E-3
MEAN_MOTION_DOT = .5595E-4
MEAN_MOTION_DDOT = 0

CCSDS_OMM_VERS = 2.0
CREATION_DATE  = 
ORIGINATOR     = 

OBJECT_NAME    = TWILIGHT E
OBJECT_ID      = 2026-004E
CENTER_NAME    = EARTH
REF_FRAME      = TEME
TIME_SYSTEM    = UTC
MEAN_ELEMENT_THEORY = SGP/SGP4

EPOCH          = 2026-01-26T14:50:26.420640
MEAN_MOTION    = 14.87188016
ECCENTRICITY   = .00064029
INCLINATION    = 97.7964
RA_OF_ASC_NODE = 27.5180
ARG_OF_PERICENTER = 244.7500
MEAN_ANOMALY   = 115.3053

EPHEMERIS_TYPE = 0
CLASSIFICATION_TYPE = U
NORAD_CAT_ID   = 67367
ELEMENT_SET_NO = 999
REV_AT_EPOCH   = 224
BSTAR          = .85318053E-3
MEAN_MOTION_DOT = .7629E-4
MEAN_MOTION_DDOT = 0

CCSDS_OMM_VERS = 2.0
CREATION_DATE  = 
ORIGINATOR     = 

OBJECT_NAME    = TWILIGHT F
OBJECT_ID      = 2026-004F
CENTER_NAME    = EARTH
REF_FRAME      = TEME
TIME_SYSTEM    = UTC
MEAN_ELEMENT_THEORY = SGP/SGP4

EPOCH          = 2026-01-26T14:49:50.285568
MEAN_MOTION    = 14.87223013
ECCENTRICITY   = .00068113
INCLINATION    = 97.8024
RA_OF_ASC_NODE = 27.5218
ARG_OF_PERICENTER = 231.2076
MEAN_ANOMALY   = 128.8532

EPHEMERIS_TYPE = 0
CLASSIFICATION_TYPE = U
NORAD_CAT_ID   = 67368
ELEMENT_SET_NO = 999
REV_AT_EPOCH   = 224
BSTAR          = .62526526E-3
MEAN_MOTION_DOT = .558E-4
MEAN_MOTION_DDOT = 0

CCSDS_OMM_VERS = 2.0
CREATION_DATE  = 
ORIGINATOR     = 

OBJECT_NAME    = TWILIGHT G
OBJECT_ID      = 2026-004G
CENTER_NAME    = EARTH
REF_FRAME      = TEME
TIME_SYSTEM    = UTC
MEAN_ELEMENT_THEORY = SGP/SGP4

EPOCH          = 2026-01-26T14:48:51.920640
MEAN_MOTION    = 14.87241747
ECCENTRICITY   = .00058559
INCLINATION    = 97.7954
RA_OF_ASC_NODE = 27.5194
ARG_OF_PERICENTER = 246.4074
MEAN_ANOMALY   = 113.6528

EPHEMERIS_TYPE = 0
CLASSIFICATION_TYPE = U
NORAD_CAT_ID   = 67369
ELEMENT_SET_NO = 999
REV_AT_EPOCH   = 224
BSTAR          = .4851072E-3
MEAN_MOTION_DOT = .4318E-4
MEAN_MOTION_DDOT = 0

