STARLINK-36466          
1 67358U 26003AA  26026.57990648  .00278022  00000+0  17487-2 0  9993
2 67358  42.9980 108.3739 0001258 287.0001  73.0731 15.75108585  2343
STARLINK-36499          
1 67359U 26003AB  26026.57957144  .00280061  00000+0  17616-2 0  9998
2 67359  42.9981 108.3710 0001081 282.5515  77.5233 15.75101504  2348
STARLINK-36469          
1 67360U 26003AC  26026.57923108  .00446116  00000+0  27499-2 0  9998
2 67360  42.9976 108.3682 0000575 303.6487  56.4327 15.75090693  2348
STARLINK-35306          
1 67361U 26003AD  26026.57890193  .00435290  00000+0  26808-2 0  9990
2 67361  42.9978 108.3648 0001128 355.0094   5.0764 15.75143690  2344
STARLINK-36428          
1 67362U 26003AE  26026.57856367  .00431038  00000+0  26558-2 0  9994
2 67362  42.9979 108.3622 0001424 357.6996   2.3867 15.75145844  2343
TWILIGHT A              
1 67363U 26004A   26026.62051098  .00005276  00000+0  59572-3 0  9994
2 67363  97.7997  27.5169 0007434 241.5071 118.5396 14.86928833  2235
TWILIGHT B              
1 67364U 26004B   26026.61968700  .00005844  00000+0  65726-3 0  9990
2 67364  97.8000  27.5178 0007297 236.4862 123.5657 14.87048042  2243
TWILIGHT C              
1 67365U 26004C   26026.61945776  .00006415  00000+0  72053-3 0  9995
2 67365  97.7976  27.5172 0006917 242.5844 117.4669 14.87065478  2242
TWILIGHT D              
1 67366U 26004D   26026.61912396  .00005595  00000+0  62907-3 0  9993
2 67366  97.8032  27.5200 0007411 229.1894 130.8680 14.87078591  2247
TWILIGHT E              
1 67367U 26004E   26026.61836135  .00007629  00000+0  85318-3 0  9991
2 67367  97.7964  27.5180 0006402 244.7500 115.3053 14.87188016  2240
TWILIGHT F              
1 67368U 26004F   26026.61794312  .00005580  00000+0  62527-3 0  9993
2 67368  97.8024  27.5218 0006811 231.2076 128.8532 14.87223013  2242
TWILIGHT G              
1 67369U 26004G   26026.61726760  .00004318  00000+0  48511-3 0  9991
2 67369  97.7954  27.5194 0005855 246.4074 113.6528 14.87241747  2241
